OBJECT_NAME,OBJECT_ID,EPOCH,MEAN_MOTION,ECCENTRICITY,INCLINATION,RA_OF_ASC_NODE,ARG_OF_PERICENTER,MEAN_ANOMALY,EPHEMERIS_TYPE,CLASSIFICATION_TYPE,NORAD_CAT_ID,ELEMENT_SET_NO,REV_AT_EPOCH,BSTAR,MEAN_MOTION_DOT,MEAN_MOTION_DDOT
STARLINK-34853,2025-224L,2025-10-31T06:00:02.000160,15.49230371,.00013836,53.1589,254.6240,90.8648,60.4425,0,U,65892,999,500,.26452755E-2,.149098E-2,0
STARLINK-34921,2025-224M,2025-10-31T06:00:02.000160,15.49343201,.00017085,53.1600,254.3668,100.1376,175.0426,0,U,65893,999,507,-.19139057E-2,-.105599E-2,0
STARLINK-34672,2025-224N,2025-10-31T06:00:02.000160,15.49338457,.00018019,53.1600,254.3749,101.9957,169.3558,0,U,65894,999,507,-.18405432E-2,-.101604E-2,0
STARLINK-34898,2025-224P,2025-10-31T06:00:02.000160,15.49331233,.00019119,53.1599,254.3583,102.1422,176.8833,0,U,65895,999,507,-.15971388E-2,-.88353E-3,0
STARLINK-34906,2025-224Q,2025-10-31T06:00:02.000160,15.49343568,.00015237,53.1599,254.3626,99.5584,177.5437,0,U,65896,999,507,-.19831518E-2,-.109351E-2,0
STARLINK-34934,2025-224R,2025-10-31T06:00:02.000160,15.49286235,.00014194,53.1599,254.3506,96.7716,186.1045,0,U,65897,999,502,-.13844175E-3,-.8134E-4,0
STARLINK-34936,2025-224S,2025-10-31T06:00:02.000160,15.49194395,.000157,53.1599,254.3547,101.0179,179.9934,0,U,65898,999,507,.21379817E-2,.119813E-2,0
STARLINK-35272,2025-224T,2025-10-31T06:00:02.000160,15.49172264,.00012658,53.1600,254.3453,70.9038,213.9567,0,U,65899,999,506,.25979525E-2,.146066E-2,0
STARLINK-35264,2025-224U,2025-10-31T06:00:02.000160,15.49190247,.00013084,53.1601,254.3417,79.8719,206.8885,0,U,65900,999,506,.22582556E-2,.126671E-2,0
STARLINK-35249,2025-224V,2025-10-31T06:00:02.000160,15.49292352,.00013775,53.1599,254.3384,99.8278,188.7987,0,U,65901,999,505,-.41142293E-3,-.23249E-3,0
STARLINK-35278,2025-224W,2025-10-31T06:00:02.000160,15.49176071,.00013043,53.1600,254.3259,78.5398,215.8870,0,U,65902,999,507,.30486047E-2,.172082E-2,0
STARLINK-35210,2025-224X,2025-10-31T06:00:02.000160,15.49287078,.00013735,53.1599,254.3303,99.4171,193.0418,0,U,65903,999,505,-.1797427E-3,-.10424E-3,0
STARLINK-35348,2025-224Y,2025-10-31T06:00:02.000160,15.49190433,.0001229,53.1601,254.3340,79.2406,211.3516,0,U,65904,999,502,.228922E-2,.128445E-2,0
STARLINK-35380,2025-224Z,2025-10-31T06:00:02.000160,15.49171575,.00014361,53.1599,254.3233,96.2115,200.1373,0,U,65905,999,502,.30080804E-2,.169709E-2,0
STARLINK-35385,2025-224AA,2025-10-31T06:00:02.000160,15.49290764,.00013151,53.1599,254.3147,91.2805,208.8469,0,U,65906,999,505,-.29672937E-3,-.16905E-3,0
STARLINK-35347,2025-224AB,2025-10-31T06:00:02.000160,15.49210897,.00012013,53.1598,254.3101,79.5724,222.5015,0,U,65907,999,505,.20095639E-2,.112549E-2,0
STARLINK-35329,2025-224AC,2025-10-31T06:00:02.000160,15.49288659,.00014719,53.1599,254.3183,73.0114,225.1981,0,U,65908,999,506,-.22726877E-3,-.13058E-3,0
STARLINK-35387,2025-224AD,2025-10-31T06:00:02.000160,15.49290657,.00015251,53.1599,254.3059,102.0278,201.9314,0,U,65909,999,502,-.41020473E-3,-.2318E-3,0
STARLINK-35523,2025-225A,2025-10-31T06:00:02.000160,15.57822610,.00008549,53.1595,49.5746,78.1425,256.3517,0,U,65910,999,459,-.30194963E-1,-.2006541E-1,0
STARLINK-35160,2025-225B,2025-10-31T06:00:02.000160,15.57825217,.0000831,53.1592,49.5711,78.1391,258.2692,0,U,65911,999,454,-.3022247E-1,-.2008297E-1,0
STARLINK-35508,2025-225C,2025-10-31T06:00:02.000160,15.57822420,.00008717,53.1598,49.5659,81.1342,257.1942,0,U,65912,999,454,-.30191244E-1,-.2006323E-1,0
STARLINK-35472,2025-225D,2025-10-31T06:00:02.000160,15.57823817,.00008278,53.1596,49.5621,76.5791,263.6634,0,U,65913,999,458,-.30178135E-1,-.2005625E-1,0
STARLINK-35524,2025-225E,2025-10-31T06:00:02.000160,15.57817553,.00008448,53.1593,49.5585,86.0271,256.1375,0,U,65914,999,459,-.30063333E-1,-.1998546E-1,0
STARLINK-35539,2025-225F,2025-10-31T06:00:02.000160,15.47934929,.00013543,53.1596,49.9043,80.7672,89.9447,0,U,65915,999,454,-.50405315E-1,-.2382053E-1,0
STARLINK-35521,2025-225G,2025-10-31T06:00:02.000160,15.57820677,.00007677,53.1598,49.5498,84.0099,261.9857,0,U,65916,999,459,-.30117757E-1,-.2001866E-1,0
STARLINK-35478,2025-225H,2025-10-31T06:00:02.000160,15.57824561,.00008668,53.1597,49.5417,79.3724,270.4543,0,U,65917,999,454,-.30207782E-1,-.2007423E-1,0
STARLINK-35516,2025-225J,2025-10-31T06:00:02.000160,15.57821315,.00008339,53.1595,49.5458,77.6382,270.2717,0,U,65918,999,459,-.30100104E-1,-.2000927E-1,0
STARLINK-35519,2025-225K,2025-10-31T06:00:02.000160,15.57820785,.00008205,53.1595,49.5383,83.1520,268.5943,0,U,65919,999,459,-.30120359E-1,-.200206E-1,0
STARLINK-33902,2025-225L,2025-10-31T06:00:02.000160,15.57823061,.00007741,53.1597,49.5335,74.6967,278.9644,0,U,65920,999,458,-.3018479E-1,-.2005925E-1,0
STARLINK-35530,2025-225M,2025-10-31T06:00:02.000160,15.57822712,.00008561,53.1593,49.5301,82.3674,273.2129,0,U,65921,999,454,-.30198838E-1,-.2006774E-1,0
