STARLINK-34853          
1 65892U 25224L   25304.25002315  .00149098  00000+0  26453-2 0  9999
2 65892  53.1589 254.6240 0001383  90.8648  60.4425 15.49230371  5007
STARLINK-34921          
1 65893U 25224M   25304.25002315 -.00105599  00000+0 -19139-2 0  9993
2 65893  53.1600 254.3668 0001708 100.1376 175.0426 15.49343201  5075
STARLINK-34672          
1 65894U 25224N   25304.25002315 -.00101604  00000+0 -18405-2 0  9992
2 65894  53.1600 254.3749 0001801 101.9957 169.3558 15.49338457  5073
STARLINK-34898          
1 65895U 25224P   25304.25002315 -.00088353  00000+0 -15971-2 0  9993
2 65895  53.1599 254.3583 0001911 102.1422 176.8833 15.49331233  5073
STARLINK-34906          
1 65896U 25224Q   25304.25002315 -.00109351  00000+0 -19832-2 0  9996
2 65896  53.1599 254.3626 0001523  99.5584 177.5437 15.49343568  5071
STARLINK-34934          
1 65897U 25224R   25304.25002315 -.00008134  00000+0 -13844-3 0  9992
2 65897  53.1599 254.3506 0001419  96.7716 186.1045 15.49286235  5022
STARLINK-34936          
1 65898U 25224S   25304.25002315  .00119813  00000+0  21380-2 0  9991
2 65898  53.1599 254.3547 0001570 101.0179 179.9934 15.49194395  5076
STARLINK-35272          
1 65899U 25224T   25304.25002315  .00146066  00000+0  25980-2 0  9992
2 65899  53.1600 254.3453 0001265  70.9038 213.9567 15.49172264  5066
STARLINK-35264          
1 65900U 25224U   25304.25002315  .00126671  00000+0  22583-2 0  9991
2 65900  53.1601 254.3417 0001308  79.8719 206.8885 15.49190247  5067
STARLINK-35249          
1 65901U 25224V   25304.25002315 -.00023249  00000+0 -41142-3 0  9994
2 65901  53.1599 254.3384 0001377  99.8278 188.7987 15.49292352  5055
STARLINK-35278          
1 65902U 25224W   25304.25002315  .00172082  00000+0  30486-2 0  9991
2 65902  53.1600 254.3259 0001304  78.5398 215.8870 15.49176071  5071
STARLINK-35210          
1 65903U 25224X   25304.25002315 -.00010424  00000+0 -17974-3 0  9993
2 65903  53.1599 254.3303 0001373  99.4171 193.0418 15.49287078  5059
STARLINK-35348          
1 65904U 25224Y   25304.25002315  .00128445  00000+0  22892-2 0  9999
2 65904  53.1601 254.3340 0001229  79.2406 211.3516 15.49190433  5020
STARLINK-35380          
1 65905U 25224Z   25304.25002315  .00169709  00000+0  30081-2 0  9997
2 65905  53.1599 254.3233 0001436  96.2115 200.1373 15.49171575  5027
STARLINK-35385          
1 65906U 25224AA  25304.25002315 -.00016905  00000+0 -29673-3 0  9995
2 65906  53.1599 254.3147 0001315  91.2805 208.8469 15.49290764  5055
STARLINK-35347          
1 65907U 25224AB  25304.25002315  .00112549  00000+0  20096-2 0  9994
2 65907  53.1598 254.3101 0001201  79.5724 222.5015 15.49210897  5057
STARLINK-35329          
1 65908U 25224AC  25304.25002315 -.00013058  00000+0 -22727-3 0  9996
2 65908  53.1599 254.3183 0001471  73.0114 225.1981 15.49288659  5063
STARLINK-35387          
1 65909U 25224AD  25304.25002315 -.00023180  00000+0 -41020-3 0  9991
2 65909  53.1599 254.3059 0001525 102.0278 201.9314 15.49290657  5029
STARLINK-35523          
1 65910U 25225A   25304.25002315 -.02006541  00000+0 -30195-1 0  9997
2 65910  53.1595  49.5746 0000854  78.1425 256.3517 15.57822610  4594
STARLINK-35160          
1 65911U 25225B   25304.25002315 -.02008297  00000+0 -30222-1 0  9999
2 65911  53.1592  49.5711 0000831  78.1391 258.2692 15.57825217  4547
STARLINK-35508          
1 65912U 25225C   25304.25002315 -.02006323  00000+0 -30191-1 0  9993
2 65912  53.1598  49.5659 0000871  81.1342 257.1942 15.57822420  4548
STARLINK-35472          
1 65913U 25225D   25304.25002315 -.02005625  00000+0 -30178-1 0  9993
2 65913  53.1596  49.5621 0000827  76.5791 263.6634 15.57823817  4588
STARLINK-35524          
1 65914U 25225E   25304.25002315 -.01998546  00000+0 -30063-1 0  9999
2 65914  53.1593  49.5585 0000844  86.0271 256.1375 15.57817553  4593
STARLINK-35539          
1 65915U 25225F   25304.25002315 -.02382053  00000+0 -50405-1 0  9993
2 65915  53.1596  49.9043 0001354  80.7672  89.9447 15.47934929  4546
STARLINK-35521          
1 65916U 25225G   25304.25002315 -.02001866  00000+0 -30118-1 0  9993
2 65916  53.1598  49.5498 0000767  84.0099 261.9857 15.57820677  4593
STARLINK-35478          
1 65917U 25225H   25304.25002315 -.02007423  00000+0 -30208-1 0  9999
2 65917  53.1597  49.5417 0000866  79.3724 270.4543 15.57824561  4544
STARLINK-35516          
1 65918U 25225J   25304.25002315 -.02000927  00000+0 -30100-1 0  9993
2 65918  53.1595  49.5458 0000833  77.6382 270.2717 15.57821315  4593
STARLINK-35519          
1 65919U 25225K   25304.25002315 -.02002060  00000+0 -30120-1 0  9996
2 65919  53.1595  49.5383 0000820  83.1520 268.5943 15.57820785  4594
STARLINK-33902          
1 65920U 25225L   25304.25002315 -.02005925  00000+0 -30185-1 0  9992
2 65920  53.1597  49.5335 0000774  74.6967 278.9644 15.57823061  4585
STARLINK-35530          
1 65921U 25225M   25304.25002315 -.02006774  00000+0 -30199-1 0  9991
2 65921  53.1593  49.5301 0000856  82.3674 273.2129 15.57822712  4541
